{
  "type": "FeatureCollection",
  "name": "Anak Krakatau 2026 Approximate Ash Coverage",
  "features": [
    {
      "type": "Feature",
      "properties": {
        "name": "Reported ash-affected corridor — Indonesia",
        "coverage_type": "ash_affected",
        "regions": [
          "Bengkulu",
          "Lampung",
          "Banten",
          "DKI Jakarta",
          "Jawa Barat"
        ],
        "note": "Approximate analytical corridor based on reported volcanic-ash impact. It is not an official administrative or concentration boundary."
      },
      "geometry": {
        "type": "Polygon",
        "coordinates": [
          [
            [
              103.65,
              -5.02
            ],
            [
              104.2,
              -5.12
            ],
            [
              104.65,
              -5.32
            ],
            [
              105.15,
              -5.22
            ],
            [
              105.62,
              -5.38
            ],
            [
              106.02,
              -5.48
            ],
            [
              106.38,
              -5.6
            ],
            [
              106.74,
              -5.83
            ],
            [
              107.02,
              -6.13
            ],
            [
              106.88,
              -6.42
            ],
            [
              106.46,
              -6.58
            ],
            [
              105.92,
              -6.62
            ],
            [
              105.42,
              -6.52
            ],
            [
              104.96,
              -6.66
            ],
            [
              104.54,
              -6.42
            ],
            [
              104.1,
              -6.18
            ],
            [
              103.82,
              -5.78
            ],
            [
              103.65,
              -5.02
            ]
          ]
        ]
      }
    },
    {
      "type": "Feature",
      "properties": {
        "name": "Higher-level ash monitoring plume — offshore",
        "coverage_type": "higher_level_monitoring",
        "note": "Approximate offshore monitoring corridor consistent with higher-level ash observations reported by BMKG; not an official ash concentration boundary."
      },
      "geometry": {
        "type": "Polygon",
        "coordinates": [
          [
            [
              98.85,
              -4.22
            ],
            [
              99.72,
              -4.32
            ],
            [
              100.58,
              -4.55
            ],
            [
              101.42,
              -4.68
            ],
            [
              102.22,
              -4.88
            ],
            [
              102.98,
              -5.12
            ],
            [
              103.6,
              -5.42
            ],
            [
              103.74,
              -5.82
            ],
            [
              103.38,
              -6.2
            ],
            [
              102.76,
              -6.53
            ],
            [
              101.92,
              -6.62
            ],
            [
              101.06,
              -6.42
            ],
            [
              100.2,
              -6.12
            ],
            [
              99.46,
              -5.6
            ],
            [
              99.02,
              -4.92
            ],
            [
              98.85,
              -4.22
            ]
          ]
        ]
      }
    }
  ],
  "generated_at": "2026-10-07T21:42:44+07:00",
  "data_note": "Static analytical coverage reference; not a live government polygon boundary."
}